[{"OBJECT_NAME":"ONEWEB-0680","OBJECT_ID":"2023-068G","EPOCH":"2025-12-08T06:23:05.212320","MEAN_MOTION":13.21824946,"ECCENTRICITY":0.00011696,"INCLINATION":87.9219,"RA_OF_ASC_NODE":282.0403,"ARG_OF_PERICENTER":78.9743,"MEAN_ANOMALY":281.1522,"EPHEMERIS_TYPE":0,"CLASSIFICATION_TYPE":"U","NORAD_CAT_ID":56716,"ELEMENT_SET_NO":999,"REV_AT_EPOCH":12587,"BSTAR":0.00026566272,"MEAN_MOTION_DOT":1.23e-6,"MEAN_MOTION_DDOT":0},{"OBJECT_NAME":"ONEWEB-0681","OBJECT_ID":"2023-068H","EPOCH":"2025-12-08T05:53:28.503456","MEAN_MOTION":13.21824977,"ECCENTRICITY":0.00023536,"INCLINATION":87.9212,"RA_OF_ASC_NODE":282.0602,"ARG_OF_PERICENTER":103.6625,"MEAN_ANOMALY":256.4771,"EPHEMERIS_TYPE":0,"CLASSIFICATION_TYPE":"U","NORAD_CAT_ID":56717,"ELEMENT_SET_NO":999,"REV_AT_EPOCH":12586,"BSTAR":0.00044691961,"MEAN_MOTION_DOT":1.98e-6,"MEAN_MOTION_DDOT":0},{"OBJECT_NAME":"ONEWEB-0682","OBJECT_ID":"2023-068J","EPOCH":"2025-12-08T06:46:24.525120","MEAN_MOTION":13.15546163,"ECCENTRICITY":0.00013393,"INCLINATION":87.8987,"RA_OF_ASC_NODE":297.2909,"ARG_OF_PERICENTER":85.2006,"MEAN_ANOMALY":274.9277,"EPHEMERIS_TYPE":0,"CLASSIFICATION_TYPE":"U","NORAD_CAT_ID":56718,"ELEMENT_SET_NO":999,"REV_AT_EPOCH":12435,"BSTAR":2.791265e-5,"MEAN_MOTION_DOT":2.3e-7,"MEAN_MOTION_DDOT":0},{"OBJECT_NAME":"ONEWEB-0683","OBJECT_ID":"2023-068K","EPOCH":"2025-12-08T07:17:14.252352","MEAN_MOTION":13.15548976,"ECCENTRICITY":0.0001584,"INCLINATION":87.8998,"RA_OF_ASC_NODE":297.2707,"ARG_OF_PERICENTER":79.507,"MEAN_ANOMALY":280.6239,"EPHEMERIS_TYPE":0,"CLASSIFICATION_TYPE":"U","NORAD_CAT_ID":56719,"ELEMENT_SET_NO":999,"REV_AT_EPOCH":12432,"BSTAR":5.9388157e-5,"MEAN_MOTION_DOT":3.5e-7,"MEAN_MOTION_DDOT":0},{"OBJECT_NAME":"ONEWEB-0684","OBJECT_ID":"2023-068L","EPOCH":"2025-12-08T07:28:37.138944","MEAN_MOTION":13.15547795,"ECCENTRICITY":0.00029235,"INCLINATION":87.8988,"RA_OF_ASC_NODE":297.2633,"ARG_OF_PERICENTER":57.57,"MEAN_ANOMALY":302.5712,"EPHEMERIS_TYPE":0,"CLASSIFICATION_TYPE":"U","NORAD_CAT_ID":56720,"ELEMENT_SET_NO":999,"REV_AT_EPOCH":12415,"BSTAR":-0.00049447212,"MEAN_MOTION_DOT":-1.73e-6,"MEAN_MOTION_DDOT":0},{"OBJECT_NAME":"ONEWEB-0686","OBJECT_ID":"2023-068M","EPOCH":"2025-12-08T06:51:53.791200","MEAN_MOTION":13.15056996,"ECCENTRICITY":0.00016447,"INCLINATION":87.9032,"RA_OF_ASC_NODE":266.8164,"ARG_OF_PERICENTER":62.8989,"MEAN_ANOMALY":297.2309,"EPHEMERIS_TYPE":0,"CLASSIFICATION_TYPE":"U","NORAD_CAT_ID":56721,"ELEMENT_SET_NO":999,"REV_AT_EPOCH":12659,"BSTAR":-3.4841353e-5,"MEAN_MOTION_DOT":0,"MEAN_MOTION_DDOT":0},{"OBJECT_NAME":"ONEWEB-0694","OBJECT_ID":"2023-068N","EPOCH":"2025-12-08T07:20:44.715840","MEAN_MOTION":13.1659454,"ECCENTRICITY":0.0001236,"INCLINATION":87.9052,"RA_OF_ASC_NODE":266.7474,"ARG_OF_PERICENTER":71.418,"MEAN_ANOMALY":288.7085,"EPHEMERIS_TYPE":0,"CLASSIFICATION_TYPE":"U","NORAD_CAT_ID":56722,"ELEMENT_SET_NO":999,"REV_AT_EPOCH":12665,"BSTAR":0.00037502116,"MEAN_MOTION_DOT":1.56e-6,"MEAN_MOTION_DDOT":0},{"OBJECT_NAME":"ONEWEB-0696","OBJECT_ID":"2023-068P","EPOCH":"2025-12-08T06:27:02.259360","MEAN_MOTION":13.15548998,"ECCENTRICITY":0.00021665,"INCLINATION":87.8986,"RA_OF_ASC_NODE":297.3253,"ARG_OF_PERICENTER":77.0258,"MEAN_ANOMALY":283.1114,"EPHEMERIS_TYPE":0,"CLASSIFICATION_TYPE":"U","NORAD_CAT_ID":56723,"ELEMENT_SET_NO":999,"REV_AT_EPOCH":12426,"BSTAR":0.00037198454,"MEAN_MOTION_DOT":1.53e-6,"MEAN_MOTION_DDOT":0},{"OBJECT_NAME":"ONEWEB-0703","OBJECT_ID":"2023-068Q","EPOCH":"2025-12-08T06:40:43.623552","MEAN_MOTION":13.1554967,"ECCENTRICITY":0.00028567,"INCLINATION":87.8981,"RA_OF_ASC_NODE":297.305,"ARG_OF_PERICENTER":83.2936,"MEAN_ANOMALY":276.8519,"EPHEMERIS_TYPE":0,"CLASSIFICATION_TYPE":"U","NORAD_CAT_ID":56724,"ELEMENT_SET_NO":999,"REV_AT_EPOCH":12415,"BSTAR":5.5182915e-5,"MEAN_MOTION_DOT":3.4e-7,"MEAN_MOTION_DDOT":0},{"OBJECT_NAME":"ONEWEB-0721","OBJECT_ID":"2023-068R","EPOCH":"2025-12-08T04:12:07.063200","MEAN_MOTION":13.2245352,"ECCENTRICITY":0.00014277,"INCLINATION":86.6792,"RA_OF_ASC_NODE":146.449,"ARG_OF_PERICENTER":94.2709,"MEAN_ANOMALY":265.8587,"EPHEMERIS_TYPE":0,"CLASSIFICATION_TYPE":"U","NORAD_CAT_ID":56725,"ELEMENT_SET_NO":999,"REV_AT_EPOCH":13269,"BSTAR":0.00025557079,"MEAN_MOTION_DOT":1.21e-6,"MEAN_MOTION_DDOT":0},{"OBJECT_NAME":"ONEWEB-0015","OBJECT_ID":"2024-188A","EPOCH":"2025-12-08T06:17:46.579488","MEAN_MOTION":13.11420083,"ECCENTRICITY":0.00018134,"INCLINATION":87.8857,"RA_OF_ASC_NODE":59.1203,"ARG_OF_PERICENTER":122.6713,"MEAN_ANOMALY":237.459,"EPHEMERIS_TYPE":0,"CLASSIFICATION_TYPE":"U","NORAD_CAT_ID":61594,"ELEMENT_SET_NO":999,"REV_AT_EPOCH":5943,"BSTAR":-0.00043007926,"MEAN_MOTION_DOT":-1.4e-6,"MEAN_MOTION_DDOT":0},{"OBJECT_NAME":"ONEWEB-0687","OBJECT_ID":"2024-188B","EPOCH":"2025-12-08T04:12:31.387392","MEAN_MOTION":13.17652441,"ECCENTRICITY":0.00013105,"INCLINATION":87.91,"RA_OF_ASC_NODE":43.8805,"ARG_OF_PERICENTER":117.5265,"MEAN_ANOMALY":242.5999,"EPHEMERIS_TYPE":0,"CLASSIFICATION_TYPE":"U","NORAD_CAT_ID":61595,"ELEMENT_SET_NO":999,"REV_AT_EPOCH":6074,"BSTAR":0.00016135374,"MEAN_MOTION_DOT":7.6e-7,"MEAN_MOTION_DDOT":0},{"OBJECT_NAME":"ONEWEB-0688","OBJECT_ID":"2024-188C","EPOCH":"2025-12-08T04:53:49.942464","MEAN_MOTION":13.17650117,"ECCENTRICITY":0.00022802,"INCLINATION":87.9103,"RA_OF_ASC_NODE":43.8751,"ARG_OF_PERICENTER":136.4161,"MEAN_ANOMALY":223.7151,"EPHEMERIS_TYPE":0,"CLASSIFICATION_TYPE":"U","NORAD_CAT_ID":61596,"ELEMENT_SET_NO":999,"REV_AT_EPOCH":6074,"BSTAR":-0.0011144402,"MEAN_MOTION_DOT":-4.2e-6,"MEAN_MOTION_DDOT":0},{"OBJECT_NAME":"ONEWEB-0689","OBJECT_ID":"2024-188D","EPOCH":"2025-12-08T07:06:36.486432","MEAN_MOTION":13.11416314,"ECCENTRICITY":0.00013628,"INCLINATION":87.885,"RA_OF_ASC_NODE":59.0486,"ARG_OF_PERICENTER":104.7534,"MEAN_ANOMALY":255.3745,"EPHEMERIS_TYPE":0,"CLASSIFICATION_TYPE":"U","NORAD_CAT_ID":61597,"ELEMENT_SET_NO":999,"REV_AT_EPOCH":5943,"BSTAR":0.0011404807,"MEAN_MOTION_DOT":4.17e-6,"MEAN_MOTION_DDOT":0},{"OBJECT_NAME":"ONEWEB-0690","OBJECT_ID":"2024-188E","EPOCH":"2025-12-08T05:31:22.970208","MEAN_MOTION":13.11416751,"ECCENTRICITY":0.00023941,"INCLINATION":87.8871,"RA_OF_ASC_NODE":59.0738,"ARG_OF_PERICENTER":96.899,"MEAN_ANOMALY":263.241,"EPHEMERIS_TYPE":0,"CLASSIFICATION_TYPE":"U","NORAD_CAT_ID":61598,"ELEMENT_SET_NO":999,"REV_AT_EPOCH":5960,"BSTAR":-2.1815632e-5,"MEAN_MOTION_DOT":5.0e-8,"MEAN_MOTION_DDOT":0},{"OBJECT_NAME":"ONEWEB-0691","OBJECT_ID":"2024-188F","EPOCH":"2025-12-08T05:24:04.015872","MEAN_MOTION":13.11421611,"ECCENTRICITY":0.0001681,"INCLINATION":87.8835,"RA_OF_ASC_NODE":58.9775,"ARG_OF_PERICENTER":119.078,"MEAN_ANOMALY":241.0517,"EPHEMERIS_TYPE":0,"CLASSIFICATION_TYPE":"U","NORAD_CAT_ID":61599,"ELEMENT_SET_NO":999,"REV_AT_EPOCH":5945,"BSTAR":0.00059643537,"MEAN_MOTION_DOT":2.24e-6,"MEAN_MOTION_DDOT":0},{"OBJECT_NAME":"ONEWEB-0692","OBJECT_ID":"2024-188G","EPOCH":"2025-12-08T05:53:20.598720","MEAN_MOTION":13.11416665,"ECCENTRICITY":0.00014069,"INCLINATION":87.8852,"RA_OF_ASC_NODE":59.1173,"ARG_OF_PERICENTER":70.4589,"MEAN_ANOMALY":289.6691,"EPHEMERIS_TYPE":0,"CLASSIFICATION_TYPE":"U","NORAD_CAT_ID":61600,"ELEMENT_SET_NO":999,"REV_AT_EPOCH":5944,"BSTAR":-0.0014379553,"MEAN_MOTION_DOT":-4.97e-6,"MEAN_MOTION_DDOT":0},{"OBJECT_NAME":"ONEWEB-0693","OBJECT_ID":"2024-188H","EPOCH":"2025-12-08T05:10:52.578048","MEAN_MOTION":13.17648615,"ECCENTRICITY":0.00025911,"INCLINATION":87.9103,"RA_OF_ASC_NODE":43.8921,"ARG_OF_PERICENTER":101.9445,"MEAN_ANOMALY":258.1978,"EPHEMERIS_TYPE":0,"CLASSIFICATION_TYPE":"U","NORAD_CAT_ID":61601,"ELEMENT_SET_NO":999,"REV_AT_EPOCH":6073,"BSTAR":7.8801564e-5,"MEAN_MOTION_DOT":4.3e-7,"MEAN_MOTION_DDOT":0},{"OBJECT_NAME":"ONEWEB-0695","OBJECT_ID":"2024-188J","EPOCH":"2025-12-08T05:19:10.950528","MEAN_MOTION":13.11416384,"ECCENTRICITY":0.00011844,"INCLINATION":87.8853,"RA_OF_ASC_NODE":59.1106,"ARG_OF_PERICENTER":92.9095,"MEAN_ANOMALY":267.2169,"EPHEMERIS_TYPE":0,"CLASSIFICATION_TYPE":"U","NORAD_CAT_ID":61602,"ELEMENT_SET_NO":999,"REV_AT_EPOCH":5943,"BSTAR":0.00089544944,"MEAN_MOTION_DOT":3.3e-6,"MEAN_MOTION_DDOT":0},{"OBJECT_NAME":"ONEWEB-0697","OBJECT_ID":"2024-188K","EPOCH":"2025-12-08T06:05:32.975232","MEAN_MOTION":13.11417981,"ECCENTRICITY":0.00014692,"INCLINATION":87.8853,"RA_OF_ASC_NODE":59.0947,"ARG_OF_PERICENTER":74.5209,"MEAN_ANOMALY":285.6082,"EPHEMERIS_TYPE":0,"CLASSIFICATION_TYPE":"U","NORAD_CAT_ID":61603,"ELEMENT_SET_NO":999,"REV_AT_EPOCH":5942,"BSTAR":-0.001425433,"MEAN_MOTION_DOT":-4.92e-6,"MEAN_MOTION_DDOT":0},{"OBJECT_NAME":"ONEWEB-0698","OBJECT_ID":"2024-188L","EPOCH":"2025-12-08T05:33:50.147424","MEAN_MOTION":13.11414779,"ECCENTRICITY":0.00023017,"INCLINATION":87.8856,"RA_OF_ASC_NODE":59.1139,"ARG_OF_PERICENTER":75.2246,"MEAN_ANOMALY":284.9137,"EPHEMERIS_TYPE":0,"CLASSIFICATION_TYPE":"U","NORAD_CAT_ID":61604,"ELEMENT_SET_NO":999,"REV_AT_EPOCH":5944,"BSTAR":-0.00028453566,"MEAN_MOTION_DOT":-8.8e-7,"MEAN_MOTION_DDOT":0},{"OBJECT_NAME":"ONEWEB-0699","OBJECT_ID":"2024-188M","EPOCH":"2025-12-08T07:43:21.334944","MEAN_MOTION":13.10374055,"ECCENTRICITY":0.00014921,"INCLINATION":87.8819,"RA_OF_ASC_NODE":74.3092,"ARG_OF_PERICENTER":77.6733,"MEAN_ANOMALY":282.4562,"EPHEMERIS_TYPE":0,"CLASSIFICATION_TYPE":"U","NORAD_CAT_ID":61605,"ELEMENT_SET_NO":999,"REV_AT_EPOCH":5831,"BSTAR":0.0016527402,"MEAN_MOTION_DOT":5.9e-6,"MEAN_MOTION_DDOT":0},{"OBJECT_NAME":"ONEWEB-0700","OBJECT_ID":"2024-188N","EPOCH":"2025-12-08T07:45:44.568864","MEAN_MOTION":13.1037421,"ECCENTRICITY":9.295e-5,"INCLINATION":87.8828,"RA_OF_ASC_NODE":74.1939,"ARG_OF_PERICENTER":89.216,"MEAN_ANOMALY":270.9074,"EPHEMERIS_TYPE":0,"CLASSIFICATION_TYPE":"U","NORAD_CAT_ID":61606,"ELEMENT_SET_NO":999,"REV_AT_EPOCH":5830,"BSTAR":0.0020080049,"MEAN_MOTION_DOT":7.14e-6,"MEAN_MOTION_DDOT":0}]
